{
  "links" : {
    "next" : "https://api.nasa.gov/neo/rest/v1/feed?start_date=2002-12-23&end_date=2002-12-23&detailed=true&api_key=t0TVs3DtDT2H8Oy2Zy8m2eVrNsAVKAexjcZXUckd",
    "prev" : "https://api.nasa.gov/neo/rest/v1/feed?start_date=2002-12-21&end_date=2002-12-21&detailed=true&api_key=t0TVs3DtDT2H8Oy2Zy8m2eVrNsAVKAexjcZXUckd",
    "self" : "https://api.nasa.gov/neo/rest/v1/feed?start_date=2002-12-22&end_date=2002-12-22&detailed=true&api_key=t0TVs3DtDT2H8Oy2Zy8m2eVrNsAVKAexjcZXUckd"
  },
  "element_count" : 8,
  "near_earth_objects" : {
    "2002-12-22" : [ {
      "links" : {
        "self" : "https://api.nasa.gov/neo/rest/v1/neo/3627109?api_key=t0TVs3DtDT2H8Oy2Zy8m2eVrNsAVKAexjcZXUckd"
      },
      "neo_reference_id" : "3627109",
      "name" : "(2013 DA1)",
      "nasa_jpl_url" : "http://ssd.jpl.nasa.gov/sbdb.cgi?sstr=3627109",
      "absolute_magnitude_h" : 27.3,
      "estimated_diameter" : {
        "kilometers" : {
          "estimated_diameter_min" : 0.0092162655,
          "estimated_diameter_max" : 0.0206081961
        },
        "meters" : {
          "estimated_diameter_min" : 9.216265485,
          "estimated_diameter_max" : 20.6081961232
        },
        "miles" : {
          "estimated_diameter_min" : 0.0057267201,
          "estimated_diameter_max" : 0.0128053354
        },
        "feet" : {
          "estimated_diameter_min" : 30.2370924539,
          "estimated_diameter_max" : 67.6121941689
        }
      },
      "is_potentially_hazardous_asteroid" : false,
      "close_approach_data" : [ {
        "close_approach_date" : "2002-12-22",
        "epoch_date_close_approach" : 1040544000000,
        "relative_velocity" : {
          "kilometers_per_second" : "13.4732104307",
          "kilometers_per_hour" : "48503.5575504138",
          "miles_per_hour" : "30138.2244123668"
        },
        "miss_distance" : {
          "astronomical" : "0.4074206325",
          "lunar" : "158.4866333008",
          "kilometers" : "60949260",
          "miles" : "37872116"
        },
        "orbiting_body" : "Earth"
      } ],
      "orbital_data" : {
        "orbit_id" : "7",
        "orbit_determination_date" : "2017-04-06 08:46:42",
        "orbit_uncertainty" : "7",
        "minimum_orbit_intersection" : ".0250292",
        "jupiter_tisserand_invariant" : "5.394",
        "epoch_osculation" : "2458000.5",
        "eccentricity" : ".1362360123775228",
        "semi_major_axis" : "1.167800781369033",
        "inclination" : "1.888478333671854",
        "ascending_node_longitude" : "142.4727771275691",
        "orbital_period" : "460.9476117039286",
        "perihelion_distance" : "1.00870425966396",
        "perihelion_argument" : "348.3929321735357",
        "aphelion_distance" : "1.326897303074105",
        "perihelion_time" : "2458167.490761712094",
        "mean_anomaly" : "229.5802458024942",
        "mean_motion" : ".7809998161596544",
        "equinox" : "J2000"
      }
    }, {
      "links" : {
        "self" : "https://api.nasa.gov/neo/rest/v1/neo/3674659?api_key=t0TVs3DtDT2H8Oy2Zy8m2eVrNsAVKAexjcZXUckd"
      },
      "neo_reference_id" : "3674659",
      "name" : "(2014 NL52)",
      "nasa_jpl_url" : "http://ssd.jpl.nasa.gov/sbdb.cgi?sstr=3674659",
      "absolute_magnitude_h" : 23.6,
      "estimated_diameter" : {
        "kilometers" : {
          "estimated_diameter_min" : 0.0506471459,
          "estimated_diameter_max" : 0.1132504611
        },
        "meters" : {
          "estimated_diameter_min" : 50.6471458835,
          "estimated_diameter_max" : 113.2504610618
        },
        "miles" : {
          "estimated_diameter_min" : 0.0314706677,
          "estimated_diameter_max" : 0.0703705522
        },
        "feet" : {
          "estimated_diameter_min" : 166.1651821003,
          "estimated_diameter_max" : 371.5566426699
        }
      },
      "is_potentially_hazardous_asteroid" : false,
      "close_approach_data" : [ {
        "close_approach_date" : "2002-12-22",
        "epoch_date_close_approach" : 1040544000000,
        "relative_velocity" : {
          "kilometers_per_second" : "8.6924878189",
          "kilometers_per_hour" : "31292.9561480208",
          "miles_per_hour" : "19444.2260020855"
        },
        "miss_distance" : {
          "astronomical" : "0.4724117059",
          "lunar" : "183.7681427002",
          "kilometers" : "70671784",
          "miles" : "43913412"
        },
        "orbiting_body" : "Earth"
      } ],
      "orbital_data" : {
        "orbit_id" : "21",
        "orbit_determination_date" : "2017-04-06 08:39:40",
        "orbit_uncertainty" : "5",
        "minimum_orbit_intersection" : ".00695551",
        "jupiter_tisserand_invariant" : "5.194",
        "epoch_osculation" : "2458000.5",
        "eccentricity" : ".1946672083388957",
        "semi_major_axis" : "1.22398080562801",
        "inclination" : "7.756198316474172",
        "ascending_node_longitude" : "282.689919817095",
        "orbital_period" : "494.6070903344091",
        "perihelion_distance" : ".985711879136013",
        "perihelion_argument" : "329.6739845046062",
        "aphelion_distance" : "1.462249732120008",
        "perihelion_time" : "2457802.315325206635",
        "mean_anomaly" : "144.2488074268675",
        "mean_motion" : ".727850463600512",
        "equinox" : "J2000"
      }
    } ]
  }
}